OBJECT_NAME,OBJECT_ID,OBJECT_TYPE,EPOCH,MEAN_MOTION,ECCENTRICITY,INCLINATION,RA_OF_ASC_NODE,ARG_OF_PERICENTER,MEAN_ANOMALY,EPHEMERIS_TYPE,CLASSIFICATION_TYPE,NORAD_CAT_ID,ELEMENT_SET_NO,REV_AT_EPOCH,BSTAR,MEAN_MOTION_DOT,MEAN_MOTION_DDOT,WEATHER,BRIGHTEST,EARTH_RESOURCES,NAVIGATION,SCIENTIFIC,MISCELLANEOUS,COMMUNICATION,active geosynchronous,constellations,active_geosynchronous
LEMUR-2-ROUNDTRIPPER,2025-009DG,Sattelite,2026-02-22T16:54:21.799872,15.01733751,0.00040136,97.73,136.7013,176.1255,184.0001,0,U,62711,999,6043,0.00092405737,0.00011979,0.0,False,False,spire,False,False,False,False,False,False,
LEMUR-2-MYNAMEISJEFF,2025-009DH,Sattelite,2026-02-22T16:52:08.273856,15.01724925,0.00032322,97.735,137.0133,211.9432,148.1597,0,U,62712,999,6043,0.00086223554,0.00011169,0.0,False,False,spire,False,False,False,False,False,False,
SATGUS,2025-009DJ,Sattelite,2026-02-22T16:39:33.624288,14.99533845,0.00045595,97.709,136.1003,144.3638,215.789,0,U,62713,999,6039,0.00071614018,8.747e-05,0.0,False,False,False,False,False,False,False,False,False,
CENTAURI-8,2025-009DK,Sattelite,2026-02-22T16:31:17.852448,14.9706321,0.0002561,97.7104,135.3516,146.7024,213.4359,0,U,62714,999,6034,0.00041126781,4.683e-05,0.0,False,False,False,False,False,False,False,False,False,
CONNECTA IOT-7,2025-009DL,Sattelite,2026-02-22T04:15:00.473184,14.93913071,0.00013876,97.7156,134.0444,152.3423,207.7871,0,U,62715,999,6017,0.00011706277,1.189e-05,0.0,False,False,False,False,False,False,False,False,False,
PRSC-EO1,2025-012A,Sattelite,2026-02-22T22:21:25.621056,15.1777519,0.0004694,97.4328,128.569,297.5679,62.5078,0,U,62725,999,6086,0.00052902234,0.0001063,0.0,False,False,False,False,False,False,False,False,False,
2025-012B,2025-012B,Sattelite,2026-02-22T16:51:01.976544,15.20002907,0.00080637,97.4334,128.4294,323.2874,36.7808,0,U,62726,999,6085,0.00028342695,6.042e-05,0.0,False,False,False,False,False,False,False,False,False,
2025-012C,2025-012C,Sattelite,2026-02-22T22:45:28.173600,15.24902992,0.00067128,97.4349,130.1131,311.8516,48.2148,0,U,62727,999,6096,0.00055649792,0.00013795,0.0,False,False,False,False,False,False,False,False,False,
2025-013A,2025-013A,Sattelite,2026-02-22T22:09:49.601664,15.28149749,0.00103257,97.6351,229.0749,334.4317,25.641,0,U,62729,999,6046,0.0011991372,0.00032987,0.0,False,False,False,False,False,False,False,False,False,
2025-013B,2025-013B,Sattelite,2026-02-22T21:38:31.208640,15.10403637,0.00142788,97.6447,223.2853,45.4424,314.7968,0,U,62730,999,6007,0.00028410182,4.613e-05,0.0,False,False,False,False,False,False,False,False,False,
2025-013C,2025-013C,Sattelite,2026-02-22T22:50:31.351200,15.10383782,0.00151162,97.6395,223.1182,47.9835,312.2679,0,U,62731,999,6008,0.00033937171,5.522e-05,0.0,False,False,False,False,False,False,False,False,False,
2025-013D,2025-013D,Sattelite,2026-02-22T23:27:13.226688,15.10423907,0.00097622,97.6434,223.411,66.0706,294.1545,0,U,62732,999,6003,0.00028863571,4.684e-05,0.0,False,False,False,False,False,False,False,False,False,
2025-013E,2025-013E,Sattelite,2026-02-22T21:26:54.009024,15.10181695,0.00094835,97.6447,223.2921,54.5954,305.616,0,U,62733,999,5996,0.00031477807,5.08e-05,0.0,False,False,False,False,False,False,False,False,False,
STARLINK-32806,2025-014A,Sattelite,2026-02-22T21:38:10.340448,15.27616706,0.00028487,43.0047,238.0944,261.6329,98.4199,0,U,62735,999,6099,0.0013820989,0.00038011,0.0,False,False,False,False,False,False,False,False,starlink,
STARLINK-32329,2025-014B,Sattelite,2026-02-22T13:19:39.492480,15.27608713,0.0001628,43.0019,239.7854,263.0355,97.0311,0,U,62736,999,6094,0.0008432,0.00023034,0.0,False,False,False,False,False,False,False,False,starlink,
STARLINK-32774,2025-014C,Sattelite,2026-02-22T20:53:05.959968,15.2756444,0.00015357,42.9945,241.307,268.2927,91.7749,0,U,62737,999,6095,0.00085671036,0.00023377,0.0,False,False,False,False,False,False,False,False,starlink,
STARLINK-32802,2025-014D,Sattelite,2026-02-22T20:40:49.332576,15.2758544,0.00016392,43.0025,237.7839,273.2244,86.842,0,U,62738,999,6099,0.0013211938,0.0003628,0.0,False,False,False,False,False,False,False,False,starlink,
STARLINK-32796,2025-014E,Sattelite,2026-02-22T20:37:07.054752,15.27593091,0.00020412,43.0005,237.7623,273.3179,86.7439,0,U,62739,999,6099,0.001200856,0.00032944,0.0,False,False,False,False,False,False,False,False,starlink,
STARLINK-32805,2025-014F,Sattelite,2026-02-22T20:26:13.974432,15.27596134,0.00021099,43.0023,238.5765,272.9567,87.1044,0,U,62740,999,6098,0.0013709623,0.00037676,0.0,False,False,False,False,False,False,False,False,starlink,
STARLINK-32770,2025-014G,Sattelite,2026-02-22T19:21:28.200960,15.27589534,0.00022166,42.9998,238.2329,276.2137,83.8462,0,U,62741,999,6098,0.0012499556,0.00034305,0.0,False,False,False,False,False,False,False,False,starlink,
STARLINK-32775,2025-014H,Sattelite,2026-02-22T21:12:16.223904,15.27601491,0.00021464,43.0044,237.9517,284.3256,75.7357,0,U,62742,999,6099,0.0010941158,0.00029988,0.0,False,False,False,False,False,False,False,False,starlink,
STARLINK-32800,2025-014J,Sattelite,2026-02-22T22:04:32.657088,15.27592368,0.00017882,43.0032,245.1483,278.0347,82.0302,0,U,62743,999,6091,0.0011314517,0.00031016,0.0,False,False,False,False,False,False,False,False,starlink,
STARLINK-32758,2025-014K,Sattelite,2026-02-22T13:20:48.621120,15.27626424,1.41e-05,42.9955,243.2523,209.6935,150.3909,0,U,62744,999,6090,0.0013073,0.00035939,0.0,False,False,False,False,False,False,False,False,starlink,
STARLINK-32746,2025-014L,Sattelite,2026-02-22T20:31:33.763296,15.27601591,0.00023918,43.0001,237.7265,244.9067,115.1537,0,U,62745,999,6099,0.0010663016,0.00029217,0.0,False,False,False,False,False,False,False,False,starlink,
