LEMUR-2-ROUNDTRIPPER    
1 62711U 25009DG  26053.70441898  .00011979  00000+0  92406-3 0  9990
2 62711  97.7300 136.7013 0004013 176.1255 184.0001 15.01733751 60431
LEMUR-2-MYNAMEISJEFF    
1 62712U 25009DH  26053.70287354  .00011169  00000+0  86224-3 0  9998
2 62712  97.7350 137.0133 0003232 211.9432 148.1597 15.01724925 60435
SATGUS                  
1 62713U 25009DJ  26053.69413917  .00008747  00000+0  71614-3 0  9998
2 62713  97.7090 136.1003 0004559 144.3638 215.7890 14.99533845 60390
CENTAURI-8              
1 62714U 25009DK  26053.68840107  .00004683  00000+0  41127-3 0  9994
2 62714  97.7104 135.3516 0002561 146.7024 213.4359 14.97063210 60345
CONNECTA IOT-7          
1 62715U 25009DL  26053.17708881  .00001189  00000+0  11706-3 0  9999
2 62715  97.7156 134.0444 0001387 152.3423 207.7871 14.93913071 60171
PRSC-EO1                
1 62725U 25012A   26053.93154654  .00010630  00000+0  52902-3 0  9995
2 62725  97.4328 128.5690 0004694 297.5679  62.5078 15.17775190 60867
2025-012B               
1 62726U 25012B   26053.70210621  .00006042  00000+0  28343-3 0  9992
2 62726  97.4334 128.4294 0008063 323.2874  36.7808 15.20002907 60858
2025-012C               
1 62727U 25012C   26053.94824275  .00013795  00000+0  55650-3 0  9999
2 62727  97.4349 130.1131 0006712 311.8516  48.2148 15.24902992 60964
2025-013A               
1 62729U 25013A   26053.92349076  .00032987  00000+0  11991-2 0  9994
2 62729  97.6351 229.0749 0010325 334.4317  25.6410 15.28149749 60462
2025-013B               
1 62730U 25013B   26053.90175010  .00004613  00000+0  28410-3 0  9999
2 62730  97.6447 223.2853 0014278  45.4424 314.7968 15.10403637 60078
2025-013C               
1 62731U 25013C   26053.95175175  .00005522  00000+0  33937-3 0  9997
2 62731  97.6395 223.1182 0015116  47.9835 312.2679 15.10383782 60081
2025-013D               
1 62732U 25013D   26053.97723642  .00004684  00000+0  28864-3 0  9999
2 62732  97.6434 223.4110 0009762  66.0706 294.1545 15.10423907 60038
2025-013E               
1 62733U 25013E   26053.89368066  .00005080  00000+0  31478-3 0  9992
2 62733  97.6447 223.2921 0009483  54.5954 305.6160 15.10181695 59964
STARLINK-32806          
1 62735U 25014A   26053.90150857  .00038011  00000+0  13821-2 0  9995
2 62735  43.0047 238.0944 0002848 261.6329  98.4199 15.27616706 60999
STARLINK-32329          
1 62736U 25014B   26053.55531820  .00023034  00000+0  84320-3 0  9992
2 62736  43.0019 239.7854 0001628 263.0355  97.0311 15.27608713 60942
STARLINK-32774          
1 62737U 25014C   26053.87020787  .00023377  00000+0  85671-3 0  9993
2 62737  42.9945 241.3070 0001535 268.2927  91.7749 15.27564440 60952
STARLINK-32802          
1 62738U 25014D   26053.86168209  .00036280  00000+0  13212-2 0  9993
2 62738  43.0025 237.7839 0001639 273.2244  86.8420 15.27585440 60997
STARLINK-32796          
1 62739U 25014E   26053.85910943  .00032944  00000+0  12009-2 0  9999
2 62739  43.0005 237.7623 0002041 273.3179  86.7439 15.27593091 60993
STARLINK-32805          
1 62740U 25014F   26053.85155063  .00037676  00000+0  13710-2 0  9992
2 62740  43.0023 238.5765 0002109 272.9567  87.1044 15.27596134 60989
STARLINK-32770          
1 62741U 25014G   26053.80657640  .00034305  00000+0  12500-2 0  9998
2 62741  42.9998 238.2329 0002216 276.2137  83.8462 15.27589534 60984
STARLINK-32775          
1 62742U 25014H   26053.88352111  .00029988  00000+0  10941-2 0  9990
2 62742  43.0044 237.9517 0002146 284.3256  75.7357 15.27601491 60999
STARLINK-32800          
1 62743U 25014J   26053.91982242  .00031016  00000+0  11315-2 0  9990
2 62743  43.0032 245.1483 0001788 278.0347  82.0302 15.27592368 60917
STARLINK-32758          
1 62744U 25014K   26053.55611830  .00035939  00000+0  13073-2 0  9994
2 62744  42.9955 243.2523 0000141 209.6935 150.3909 15.27626424 60901
STARLINK-32746          
1 62745U 25014L   26053.85525189  .00029217  00000+0  10663-2 0  9993
2 62745  43.0001 237.7265 0002391 244.9067 115.1537 15.27601591 60997
